*******************************************************************************
Ephemeris / WWW_USER Fri Mar  7 09:51:40 2025 Pasadena, USA      / Horizons    
*******************************************************************************
Target body name: Triton (801)                    {source: nep097_merged}
Center body name: Earth (399)                     {source: nep097_merged}
Center-site name: Mauna Kea
*******************************************************************************
Start time      : A.D. 2018-Nov-23 03:51:00.0000 UT      
Stop  time      : A.D. 2018-Nov-23 16:25:00.0000 UT      
Step-size       : 1 minutes
*******************************************************************************
Target pole/equ : IAU_TRITON                      {East-longitude positive}
Target radii    : 1352.6, 1352.6, 1352.6 km       {Equator_a, b, pole_c}       
Center geodetic : 204.5278, 19.8260847, 4.21024   {E-lon(deg),Lat(deg),Alt(km)}
Center cylindric: 204.5278, 6006.35451, 2151.0229 {E-lon(deg),Dxy(km),Dz(km)}
Center pole/equ : ITRF93                          {East-longitude positive}
Center radii    : 6378.137, 6378.137, 6356.752 km {Equator_a, b, pole_c}       
Target primary  : Neptune
Vis. interferer : MOON (R_eq= 1737.400) km        {source: DE441}
Rel. light bend : Sun                             {source: nep097_merged}
Rel. lght bnd GM: 1.3271E+11 km^3/s^2                                          
Atmos refraction: NO (AIRLESS)
RA format       : HMS
Time format     : CAL 
Calendar mode   : Mixed Julian/Gregorian
RTS-only print  : NO       
EOP file        : eop.250306.p250602                                           
EOP coverage    : DATA-BASED 1962-JAN-20 TO 2025-MAR-06. PREDICTS-> 2025-JUN-01
Units conversion: 1 au= 149597870.700 km, c= 299792.458 km/s, 1 day= 86400.0 s 
Table cut-offs 1: Elevation (-90.0deg=NO ),Airmass (>38.000=NO), Daylight (YES)
Table cut-offs 2: Solar elongation (  0.0,180.0=NO ),Local Hour Angle( 0.0=NO )
Table cut-offs 3: RA/DEC angular rate (     0.0=NO )                           
*******************************************************************************
 Date__(UT)__HR:MN     R.A._________(ICRF)_________DEC
******************************************************
$$SOE
 2018-Nov-23 06:11  m  23 00 28.578176 -07 25 05.55872
 2018-Nov-23 06:12  m  23 00 28.578220 -07 25 05.56548
 2018-Nov-23 06:13  m  23 00 28.578264 -07 25 05.57226
 2018-Nov-23 06:14  m  23 00 28.578308 -07 25 05.57903
 2018-Nov-23 06:15  m  23 00 28.578351 -07 25 05.58582
 2018-Nov-23 06:16  m  23 00 28.578394 -07 25 05.59260
 2018-Nov-23 06:17  m  23 00 28.578437 -07 25 05.59940
 2018-Nov-23 06:18  m  23 00 28.578479 -07 25 05.60620
 2018-Nov-23 06:19  m  23 00 28.578522 -07 25 05.61300
 2018-Nov-23 06:20  m  23 00 28.578564 -07 25 05.61981
 2018-Nov-23 06:21  m  23 00 28.578606 -07 25 05.62662
 2018-Nov-23 06:22  m  23 00 28.578647 -07 25 05.63344
 2018-Nov-23 06:23  m  23 00 28.578688 -07 25 05.64027
 2018-Nov-23 06:24  m  23 00 28.578729 -07 25 05.64710
 2018-Nov-23 06:25  m  23 00 28.578770 -07 25 05.65394
 2018-Nov-23 06:26  m  23 00 28.578811 -07 25 05.66078
 2018-Nov-23 06:27  m  23 00 28.578851 -07 25 05.66763
 2018-Nov-23 06:28  m  23 00 28.578891 -07 25 05.67448
 2018-Nov-23 06:29  m  23 00 28.578931 -07 25 05.68134
 2018-Nov-23 06:30  m  23 00 28.578970 -07 25 05.68820
 2018-Nov-23 06:31  m  23 00 28.579009 -07 25 05.69507
 2018-Nov-23 06:32  m  23 00 28.579049 -07 25 05.70194
 2018-Nov-23 06:33  m  23 00 28.579087 -07 25 05.70882
 2018-Nov-23 06:34  m  23 00 28.579126 -07 25 05.71570
 2018-Nov-23 06:35  m  23 00 28.579164 -07 25 05.72259
 2018-Nov-23 06:36  m  23 00 28.579202 -07 25 05.72949
 2018-Nov-23 06:37  m  23 00 28.579240 -07 25 05.73639
 2018-Nov-23 06:38  m  23 00 28.579278 -07 25 05.74329
 2018-Nov-23 06:39  m  23 00 28.579315 -07 25 05.75021
 2018-Nov-23 06:40  m  23 00 28.579353 -07 25 05.75712
 2018-Nov-23 06:41  m  23 00 28.579390 -07 25 05.76404
 2018-Nov-23 06:42  m  23 00 28.579426 -07 25 05.77097
 2018-Nov-23 06:43  m  23 00 28.579463 -07 25 05.77790
 2018-Nov-23 06:44  m  23 00 28.579499 -07 25 05.78484
 2018-Nov-23 06:45  m  23 00 28.579535 -07 25 05.79178
 2018-Nov-23 06:46  m  23 00 28.579571 -07 25 05.79873
 2018-Nov-23 06:47  m  23 00 28.579607 -07 25 05.80568
 2018-Nov-23 06:48  m  23 00 28.579642 -07 25 05.81264
 2018-Nov-23 06:49  m  23 00 28.579677 -07 25 05.81961
 2018-Nov-23 06:50  m  23 00 28.579712 -07 25 05.82658
 2018-Nov-23 06:51  m  23 00 28.579747 -07 25 05.83355
 2018-Nov-23 06:52  m  23 00 28.579782 -07 25 05.84053
 2018-Nov-23 06:53  m  23 00 28.579816 -07 25 05.84752
 2018-Nov-23 06:54  m  23 00 28.579850 -07 25 05.85451
 2018-Nov-23 06:55  m  23 00 28.579884 -07 25 05.86150
 2018-Nov-23 06:56  m  23 00 28.579918 -07 25 05.86850
 2018-Nov-23 06:57  m  23 00 28.579951 -07 25 05.87551
 2018-Nov-23 06:58  m  23 00 28.579984 -07 25 05.88252
 2018-Nov-23 06:59  m  23 00 28.580018 -07 25 05.88954
 2018-Nov-23 07:00  m  23 00 28.580050 -07 25 05.89656
 2018-Nov-23 07:01  m  23 00 28.580083 -07 25 05.90358
 2018-Nov-23 07:02  m  23 00 28.580116 -07 25 05.91062
 2018-Nov-23 07:03  m  23 00 28.580148 -07 25 05.91765
 2018-Nov-23 07:04  m  23 00 28.580180 -07 25 05.92470
 2018-Nov-23 07:05  m  23 00 28.580212 -07 25 05.93175
 2018-Nov-23 07:06  m  23 00 28.580244 -07 25 05.93880
 2018-Nov-23 07:07  m  23 00 28.580275 -07 25 05.94586
 2018-Nov-23 07:08  m  23 00 28.580306 -07 25 05.95292
 2018-Nov-23 07:09  m  23 00 28.580338 -07 25 05.95999
 2018-Nov-23 07:10  m  23 00 28.580369 -07 25 05.96706
 2018-Nov-23 07:11  m  23 00 28.580399 -07 25 05.97414
 2018-Nov-23 07:12  m  23 00 28.580430 -07 25 05.98123
 2018-Nov-23 07:13  m  23 00 28.580460 -07 25 05.98832
 2018-Nov-23 07:14  m  23 00 28.580490 -07 25 05.99541
 2018-Nov-23 07:15  m  23 00 28.580520 -07 25 06.00251
 2018-Nov-23 07:16  m  23 00 28.580550 -07 25 06.00962
 2018-Nov-23 07:17  m  23 00 28.580580 -07 25 06.01673
 2018-Nov-23 07:18  m  23 00 28.580609 -07 25 06.02385
 2018-Nov-23 07:19  m  23 00 28.580639 -07 25 06.03097
 2018-Nov-23 07:20  m  23 00 28.580668 -07 25 06.03809
 2018-Nov-23 07:21  m  23 00 28.580697 -07 25 06.04523
 2018-Nov-23 07:22  m  23 00 28.580725 -07 25 06.05236
 2018-Nov-23 07:23  m  23 00 28.580754 -07 25 06.05951
 2018-Nov-23 07:24  m  23 00 28.580782 -07 25 06.06665
 2018-Nov-23 07:25  m  23 00 28.580810 -07 25 06.07380
 2018-Nov-23 07:26  m  23 00 28.580839 -07 25 06.08096
 2018-Nov-23 07:27  m  23 00 28.580866 -07 25 06.08813
 2018-Nov-23 07:28  m  23 00 28.580894 -07 25 06.09529
 2018-Nov-23 07:29  m  23 00 28.580922 -07 25 06.10247
 2018-Nov-23 07:30  m  23 00 28.580949 -07 25 06.10964
 2018-Nov-23 07:31  m  23 00 28.580976 -07 25 06.11683
 2018-Nov-23 07:32  m  23 00 28.581003 -07 25 06.12402
 2018-Nov-23 07:33  m  23 00 28.581030 -07 25 06.13121
 2018-Nov-23 07:34  m  23 00 28.581057 -07 25 06.13841
 2018-Nov-23 07:35  m  23 00 28.581083 -07 25 06.14561
 2018-Nov-23 07:36  m  23 00 28.581110 -07 25 06.15282
 2018-Nov-23 07:37  m  23 00 28.581136 -07 25 06.16004
 2018-Nov-23 07:38  m  23 00 28.581162 -07 25 06.16726
 2018-Nov-23 07:39  m  23 00 28.581188 -07 25 06.17448
 2018-Nov-23 07:40  m  23 00 28.581214 -07 25 06.18171
 2018-Nov-23 07:41  m  23 00 28.581239 -07 25 06.18895
 2018-Nov-23 07:42  m  23 00 28.581265 -07 25 06.19619
 2018-Nov-23 07:43  m  23 00 28.581290 -07 25 06.20343
 2018-Nov-23 07:44  m  23 00 28.581315 -07 25 06.21068
 2018-Nov-23 07:45  m  23 00 28.581340 -07 25 06.21794
 2018-Nov-23 07:46  m  23 00 28.581365 -07 25 06.22520
 2018-Nov-23 07:47  m  23 00 28.581390 -07 25 06.23247
 2018-Nov-23 07:48  m  23 00 28.581415 -07 25 06.23974
 2018-Nov-23 07:49  m  23 00 28.581439 -07 25 06.24702
 2018-Nov-23 07:50  m  23 00 28.581463 -07 25 06.25430
 2018-Nov-23 07:51  m  23 00 28.581487 -07 25 06.26158
 2018-Nov-23 07:52  m  23 00 28.581511 -07 25 06.26887
 2018-Nov-23 07:53  m  23 00 28.581535 -07 25 06.27617
 2018-Nov-23 07:54  m  23 00 28.581559 -07 25 06.28347
 2018-Nov-23 07:55  m  23 00 28.581582 -07 25 06.29078
 2018-Nov-23 07:56  m  23 00 28.581606 -07 25 06.29809
 2018-Nov-23 07:57  m  23 00 28.581629 -07 25 06.30541
 2018-Nov-23 07:58  m  23 00 28.581652 -07 25 06.31273
 2018-Nov-23 07:59  m  23 00 28.581675 -07 25 06.32006
 2018-Nov-23 08:00  m  23 00 28.581698 -07 25 06.32739
 2018-Nov-23 08:01  m  23 00 28.581721 -07 25 06.33473
 2018-Nov-23 08:02  m  23 00 28.581744 -07 25 06.34207
 2018-Nov-23 08:03  m  23 00 28.581766 -07 25 06.34942
 2018-Nov-23 08:04  m  23 00 28.581789 -07 25 06.35678
 2018-Nov-23 08:05  m  23 00 28.581811 -07 25 06.36413
 2018-Nov-23 08:06  m  23 00 28.581833 -07 25 06.37150
 2018-Nov-23 08:07  m  23 00 28.581855 -07 25 06.37887
 2018-Nov-23 08:08  m  23 00 28.581877 -07 25 06.38624
 2018-Nov-23 08:09  m  23 00 28.581898 -07 25 06.39362
 2018-Nov-23 08:10  m  23 00 28.581920 -07 25 06.40100
 2018-Nov-23 08:11  m  23 00 28.581942 -07 25 06.40839
 2018-Nov-23 08:12  m  23 00 28.581963 -07 25 06.41578
 2018-Nov-23 08:13  m  23 00 28.581984 -07 25 06.42318
 2018-Nov-23 08:14  m  23 00 28.582005 -07 25 06.43059
 2018-Nov-23 08:15  m  23 00 28.582026 -07 25 06.43800
 2018-Nov-23 08:16  m  23 00 28.582047 -07 25 06.44541
 2018-Nov-23 08:17  m  23 00 28.582068 -07 25 06.45283
 2018-Nov-23 08:18  m  23 00 28.582089 -07 25 06.46025
 2018-Nov-23 08:19  m  23 00 28.582109 -07 25 06.46768
 2018-Nov-23 08:20  m  23 00 28.582130 -07 25 06.47512
 2018-Nov-23 08:21  m  23 00 28.582150 -07 25 06.48256
 2018-Nov-23 08:22  m  23 00 28.582170 -07 25 06.49000
 2018-Nov-23 08:23  m  23 00 28.582190 -07 25 06.49745
 2018-Nov-23 08:24  m  23 00 28.582210 -07 25 06.50491
 2018-Nov-23 08:25  m  23 00 28.582230 -07 25 06.51237
 2018-Nov-23 08:26  m  23 00 28.582250 -07 25 06.51983
 2018-Nov-23 08:27  m  23 00 28.582269 -07 25 06.52730
 2018-Nov-23 08:28  m  23 00 28.582289 -07 25 06.53478
 2018-Nov-23 08:29  m  23 00 28.582308 -07 25 06.54226
 2018-Nov-23 08:30  m  23 00 28.582328 -07 25 06.54974
